CCSDS_OMM_VERS = 2.0
CREATION_DATE  = 
ORIGINATOR     = 

OBJECT_NAME    = DELTA 2 R/B(1)
OBJECT_ID      = 1990-008B
CENTER_NAME    = EARTH
REF_FRAME      = TEME
TIME_SYSTEM    = UTC
MEAN_ELEMENT_THEORY = SGP/SGP4

EPOCH          = 2026-01-11T18:23:58.843392
MEAN_MOTION    = 15.48314385
ECCENTRICITY   = .01026326
INCLINATION    = 35.6032
RA_OF_ASC_NODE = 186.2100
ARG_OF_PERICENTER = 92.1756
MEAN_ANOMALY   = 269.0733

EPHEMERIS_TYPE = 0
CLASSIFICATION_TYPE = U
NORAD_CAT_ID   = 20453
ELEMENT_SET_NO = 999
REV_AT_EPOCH   = 91728
BSTAR          = .76844123E-3
MEAN_MOTION_DOT = .52116E-3
MEAN_MOTION_DDOT = 0

CCSDS_OMM_VERS = 2.0
CREATION_DATE  = 
ORIGINATOR     = 

OBJECT_NAME    = COSMOS 2058
OBJECT_ID      = 1990-010A
CENTER_NAME    = EARTH
REF_FRAME      = TEME
TIME_SYSTEM    = UTC
MEAN_ELEMENT_THEORY = SGP/SGP4

EPOCH          = 2026-01-12T07:03:41.245632
MEAN_MOTION    = 15.10798865
ECCENTRICITY   = .00102449
INCLINATION    = 82.4689
RA_OF_ASC_NODE = 102.9757
ARG_OF_PERICENTER = 163.5593
MEAN_ANOMALY   = 196.5972

EPHEMERIS_TYPE = 0
CLASSIFICATION_TYPE = U
NORAD_CAT_ID   = 20465
ELEMENT_SET_NO = 999
REV_AT_EPOCH   = 93372
BSTAR          = .21765118E-3
MEAN_MOTION_DOT = .3646E-4
MEAN_MOTION_DDOT = 0

CCSDS_OMM_VERS = 2.0
CREATION_DATE  = 
ORIGINATOR     = 

OBJECT_NAME    = SL-14 R/B
OBJECT_ID      = 1990-010B
CENTER_NAME    = EARTH
REF_FRAME      = TEME
TIME_SYSTEM    = UTC
MEAN_ELEMENT_THEORY = SGP/SGP4

EPOCH          = 2026-01-12T07:12:43.551648
MEAN_MOTION    = 14.83507354
ECCENTRICITY   = .00211177
INCLINATION    = 82.5041
RA_OF_ASC_NODE = 320.3462
ARG_OF_PERICENTER = 123.1511
MEAN_ANOMALY   = 237.1734

EPHEMERIS_TYPE = 0
CLASSIFICATION_TYPE = U
NORAD_CAT_ID   = 20466
ELEMENT_SET_NO = 999
REV_AT_EPOCH   = 92012
BSTAR          = .55947512E-4
MEAN_MOTION_DOT = .486E-5
MEAN_MOTION_DDOT = 0

CCSDS_OMM_VERS = 2.0
CREATION_DATE  = 
ORIGINATOR     = 

OBJECT_NAME    = SL-14 R/B
OBJECT_ID      = 1990-018B
CENTER_NAME    = EARTH
REF_FRAME      = TEME
TIME_SYSTEM    = UTC
MEAN_ELEMENT_THEORY = SGP/SGP4

EPOCH          = 2026-01-12T03:05:39.243552
MEAN_MOTION    = 14.82084180
ECCENTRICITY   = .00149222
INCLINATION    = 82.5216
RA_OF_ASC_NODE = 275.9642
ARG_OF_PERICENTER = 279.5033
MEAN_ANOMALY   = 80.4495

EPHEMERIS_TYPE = 0
CLASSIFICATION_TYPE = U
NORAD_CAT_ID   = 20511
ELEMENT_SET_NO = 999
REV_AT_EPOCH   = 91420
BSTAR          = .53397719E-4
MEAN_MOTION_DOT = .448E-5
MEAN_MOTION_DDOT = 0

CCSDS_OMM_VERS = 2.0
CREATION_DATE  = 
ORIGINATOR     = 

OBJECT_NAME    = HST
OBJECT_ID      = 1990-037B
CENTER_NAME    = EARTH
REF_FRAME      = TEME
TIME_SYSTEM    = UTC
MEAN_ELEMENT_THEORY = SGP/SGP4

EPOCH          = 2026-01-12T06:54:52.066368
MEAN_MOTION    = 15.28511891
ECCENTRICITY   = .00020403
INCLINATION    = 28.4671
RA_OF_ASC_NODE = 64.4829
ARG_OF_PERICENTER = 194.5967
MEAN_ANOMALY   = 165.4569

EPHEMERIS_TYPE = 0
CLASSIFICATION_TYPE = U
NORAD_CAT_ID   = 20580
ELEMENT_SET_NO = 999
REV_AT_EPOCH   = 76467
BSTAR          = .24855487E-3
MEAN_MOTION_DOT = .7324E-4
MEAN_MOTION_DDOT = 0

CCSDS_OMM_VERS = 2.0
CREATION_DATE  = 
ORIGINATOR     = 

OBJECT_NAME    = SL-16 R/B
OBJECT_ID      = 1990-046B
CENTER_NAME    = EARTH
REF_FRAME      = TEME
TIME_SYSTEM    = UTC
MEAN_ELEMENT_THEORY = SGP/SGP4

EPOCH          = 2026-01-12T06:50:26.916864
MEAN_MOTION    = 14.15006642
ECCENTRICITY   = .00132371
INCLINATION    = 70.9998
RA_OF_ASC_NODE = 56.3730
ARG_OF_PERICENTER = 21.2261
MEAN_ANOMALY   = 338.9408

EPHEMERIS_TYPE = 0
CLASSIFICATION_TYPE = U
NORAD_CAT_ID   = 20625
ELEMENT_SET_NO = 999
REV_AT_EPOCH   = 84041
BSTAR          = .12000219E-3
MEAN_MOTION_DOT = .185E-5
MEAN_MOTION_DDOT = 0

CCSDS_OMM_VERS = 2.0
CREATION_DATE  = 
ORIGINATOR     = 

OBJECT_NAME    = COSMOS 2084
OBJECT_ID      = 1990-055A
CENTER_NAME    = EARTH
REF_FRAME      = TEME
TIME_SYSTEM    = UTC
MEAN_ELEMENT_THEORY = SGP/SGP4

EPOCH          = 2026-01-11T22:19:24.291264
MEAN_MOTION    = 15.05240015
ECCENTRICITY   = .00266128
INCLINATION    = 62.7886
RA_OF_ASC_NODE = 169.1070
ARG_OF_PERICENTER = 179.2283
MEAN_ANOMALY   = 180.8863

EPHEMERIS_TYPE = 0
CLASSIFICATION_TYPE = U
NORAD_CAT_ID   = 20663
ELEMENT_SET_NO = 999
REV_AT_EPOCH   = 92777
BSTAR          = .24065353E-3
MEAN_MOTION_DOT = .3276E-4
MEAN_MOTION_DDOT = 0

CCSDS_OMM_VERS = 2.0
CREATION_DATE  = 
ORIGINATOR     = 

OBJECT_NAME    = SL-6 R/B(2)
OBJECT_ID      = 1990-055D
CENTER_NAME    = EARTH
REF_FRAME      = TEME
TIME_SYSTEM    = UTC
MEAN_ELEMENT_THEORY = SGP/SGP4

EPOCH          = 2026-01-12T07:14:59.318016
MEAN_MOTION    = 15.03256286
ECCENTRICITY   = .00166245
INCLINATION    = 62.7837
RA_OF_ASC_NODE = 85.5568
ARG_OF_PERICENTER = 327.5232
MEAN_ANOMALY   = 32.4843

EPHEMERIS_TYPE = 0
CLASSIFICATION_TYPE = U
NORAD_CAT_ID   = 20666
ELEMENT_SET_NO = 999
REV_AT_EPOCH   = 92971
BSTAR          = .15409901E-3
MEAN_MOTION_DOT = .1904E-4
MEAN_MOTION_DDOT = 0

CCSDS_OMM_VERS = 2.0
CREATION_DATE  = 
ORIGINATOR     = 

OBJECT_NAME    = SL-8 R/B
OBJECT_ID      = 1990-078B
CENTER_NAME    = EARTH
REF_FRAME      = TEME
TIME_SYSTEM    = UTC
MEAN_ELEMENT_THEORY = SGP/SGP4

EPOCH          = 2026-01-12T07:00:58.667616
MEAN_MOTION    = 14.87017935
ECCENTRICITY   = .03688236
INCLINATION    = 82.9056
RA_OF_ASC_NODE = 301.9434
ARG_OF_PERICENTER = 203.0257
MEAN_ANOMALY   = 155.4066

EPHEMERIS_TYPE = 0
CLASSIFICATION_TYPE = U
NORAD_CAT_ID   = 20775
ELEMENT_SET_NO = 999
REV_AT_EPOCH   = 80091
BSTAR          = .50111214E-3
MEAN_MOTION_DOT = .16495E-3
MEAN_MOTION_DDOT = 0

CCSDS_OMM_VERS = 2.0
CREATION_DATE  = 
ORIGINATOR     = 

OBJECT_NAME    = SL-8 R/B
OBJECT_ID      = 1991-006B
CENTER_NAME    = EARTH
REF_FRAME      = TEME
TIME_SYSTEM    = UTC
MEAN_ELEMENT_THEORY = SGP/SGP4

EPOCH          = 2026-01-12T01:13:09.126912
MEAN_MOTION    = 13.77492430
ECCENTRICITY   = .00221693
INCLINATION    = 82.9407
RA_OF_ASC_NODE = 212.1653
ARG_OF_PERICENTER = 191.0126
MEAN_ANOMALY   = 282.0013

EPHEMERIS_TYPE = 0
CLASSIFICATION_TYPE = U
NORAD_CAT_ID   = 21088
ELEMENT_SET_NO = 999
REV_AT_EPOCH   = 75627
BSTAR          = -.34933731E-4
MEAN_MOTION_DOT = -.19E-6
MEAN_MOTION_DDOT = 0

CCSDS_OMM_VERS = 2.0
CREATION_DATE  = 
ORIGINATOR     = 

OBJECT_NAME    = OKEAN-3
OBJECT_ID      = 1991-039A
CENTER_NAME    = EARTH
REF_FRAME      = TEME
TIME_SYSTEM    = UTC
MEAN_ELEMENT_THEORY = SGP/SGP4

EPOCH          = 2026-01-12T03:34:29.114112
MEAN_MOTION    = 15.04340279
ECCENTRICITY   = .00152703
INCLINATION    = 82.5163
RA_OF_ASC_NODE = 31.6050
ARG_OF_PERICENTER = 157.3643
MEAN_ANOMALY   = 202.8261

EPHEMERIS_TYPE = 0
CLASSIFICATION_TYPE = U
NORAD_CAT_ID   = 21397
ELEMENT_SET_NO = 999
REV_AT_EPOCH   = 85653
BSTAR          = .19744478E-3
MEAN_MOTION_DOT = .2786E-4
MEAN_MOTION_DDOT = 0

CCSDS_OMM_VERS = 2.0
CREATION_DATE  = 
ORIGINATOR     = 

OBJECT_NAME    = COSMOS 2151
OBJECT_ID      = 1991-042A
CENTER_NAME    = EARTH
REF_FRAME      = TEME
TIME_SYSTEM    = UTC
MEAN_ELEMENT_THEORY = SGP/SGP4

EPOCH          = 2026-01-12T07:32:12.659424
MEAN_MOTION    = 14.99841696
ECCENTRICITY   = .00113047
INCLINATION    = 82.4978
RA_OF_ASC_NODE = 138.0383
ARG_OF_PERICENTER = 247.2610
MEAN_ANOMALY   = 112.7420

EPHEMERIS_TYPE = 0
CLASSIFICATION_TYPE = U
NORAD_CAT_ID   = 21422
ELEMENT_SET_NO = 999
REV_AT_EPOCH   = 85474
BSTAR          = .14566603E-3
MEAN_MOTION_DOT = .1832E-4
MEAN_MOTION_DDOT = 0

