DELTA 2 R/B(1)          
1 20453U 90008B   26011.76665328  .00052116  00000+0  76844-3 0  9990
2 20453  35.6032 186.2100 0102632  92.1756 269.0733 15.48314385917286
COSMOS 2058             
1 20465U 90010A   26012.29422738  .00003646  00000+0  21765-3 0  9997
2 20465  82.4689 102.9757 0010244 163.5593 196.5972 15.10798865933723
SL-14 R/B               
1 20466U 90010B   26012.30050407  .00000486  00000+0  55948-4 0  9990
2 20466  82.5041 320.3462 0021117 123.1511 237.1734 14.83507354920127
SL-14 R/B               
1 20511U 90018B   26012.12892643  .00000448  00000+0  53398-4 0  9990
2 20511  82.5216 275.9642 0014922 279.5033  80.4495 14.82084180914209
HST                     
1 20580U 90037B   26012.28810262  .00007324  00000+0  24855-3 0  9996
2 20580  28.4671  64.4829 0002040 194.5967 165.4569 15.28511891764672
SL-16 R/B               
1 20625U 90046B   26012.28503376  .00000185  00000+0  12000-3 0  9998
2 20625  70.9998  56.3730 0013237  21.2261 338.9408 14.15006642840414
COSMOS 2084             
1 20663U 90055A   26011.93014226  .00003276  00000+0  24065-3 0  9990
2 20663  62.7886 169.1070 0026612 179.2283 180.8863 15.05240015927778
SL-6 R/B(2)             
1 20666U 90055D   26012.30207544  .00001904  00000+0  15410-3 0  9992
2 20666  62.7837  85.5568 0016624 327.5232  32.4843 15.03256286929715
SL-8 R/B                
1 20775U 90078B   26012.29234569  .00016495  00000+0  50111-3 0  9991
2 20775  82.9056 301.9434 0368823 203.0257 155.4066 14.87017935800916
SL-8 R/B                
1 21088U 91006B   26012.05080008 -.00000019  00000+0 -34934-4 0  9995
2 21088  82.9407 212.1653 0022169 191.0126 282.0013 13.77492430756274
OKEAN-3                 
1 21397U 91039A   26012.14894808  .00002786  00000+0  19744-3 0  9997
2 21397  82.5163  31.6050 0015270 157.3643 202.8261 15.04340279856531
COSMOS 2151             
1 21422U 91042A   26012.31403541  .00001832  00000+0  14567-3 0  9998
2 21422  82.4978 138.0383 0011304 247.2610 112.7420 14.99841696854740
